{"type":"FeatureCollection","generator":"overpass-ide","copyright":"The data included in this document is from www.openstreetmap.org. The data is made available under ODbL.","timestamp":"2022-07-26T03:22:38Z","features":[{"type":"Feature","properties":{"@id":"node/1691647718","designation":"Mechanic","name":"Hup Hin Tyre & Repair","shop":"car_repair"},"geometry":{"type":"Point","coordinates":[100.3128335,5.4294328]},"id":"node/1691647718"},{"type":"Feature","properties":{"@id":"node/3918264481","name":"Perodua Zam Astina Sdn Bhd","shop":"car_repair"},"geometry":{"type":"Point","coordinates":[100.3864015,5.393239]},"id":"node/3918264481"},{"type":"Feature","properties":{"@id":"node/4424532891","name":"Good year tyre shop","name:en":"Good year tyre shop","shop":"car_repair"},"geometry":{"type":"Point","coordinates":[100.4978506,5.2087912]},"id":"node/4424532891"},{"type":"Feature","properties":{"@id":"node/4571594000","name":"K Smart Car Service & Air-Cond Service","shop":"car_repair","source":"https://www.mapillary.com/map/im/wcybracXFX6wZN6rrxCBBm"},"geometry":{"type":"Point","coordinates":[100.4299993,5.5188357]},"id":"node/4571594000"},{"type":"Feature","properties":{"@id":"node/4571594035","name":"Pusat Servis Kereta Euan Auto","name:en":"Euan Auto Centre","shop":"car_repair"},"geometry":{"type":"Point","coordinates":[100.4348696,5.5477914]},"id":"node/4571594035"},{"type":"Feature","properties":{"@id":"node/4571702113","name":"Syaharudin Motor Workshop","phone":"+60194752066; +60125958264","shop":"car_repair"},"geometry":{"type":"Point","coordinates":[100.4292248,5.5022505]},"id":"node/4571702113"},{"type":"Feature","properties":{"@id":"node/4571702221","name":"Pusat Servis Kereta Bak Weng","shop":"car_repair"},"geometry":{"type":"Point","coordinates":[100.4297726,5.5119363]},"id":"node/4571702221"},{"type":"Feature","properties":{"@id":"node/4573652478","name":"Pusat Servis Kereta MFA Workshop","shop":"car_repair","source":"https://openstreetcam.org/details/2193194/1314/track-info"},"geometry":{"type":"Point","coordinates":[100.4565592,5.4684137]},"id":"node/4573652478"},{"type":"Feature","properties":{"@id":"node/4573654550","name":"Zool Cool Enterprise","shop":"car_repair"},"geometry":{"type":"Point","coordinates":[100.4690771,5.4290444]},"id":"node/4573654550"},{"type":"Feature","properties":{"@id":"node/4577894621","name":"Jia Xing Enterprise","shop":"car_repair"},"geometry":{"type":"Point","coordinates":[100.4301131,5.5079806]},"id":"node/4577894621"},{"type":"Feature","properties":{"@id":"node/4577894686","brand":"Perodua","phone":"+6045754472","shop":"car_repair"},"geometry":{"type":"Point","coordinates":[100.4301154,5.4989476]},"id":"node/4577894686"},{"type":"Feature","properties":{"@id":"node/4577894722","shop":"car_repair"},"geometry":{"type":"Point","coordinates":[100.4575352,5.4741037]},"id":"node/4577894722"},{"type":"Feature","properties":{"@id":"node/4579929616","name":"Gian Lung Car Service Centre","name:zh":"健隆汽车维修中心","shop":"car_repair","source":"https://www.mapillary.com/map/im/I03PKGrUexlZ5juZY37n4S"},"geometry":{"type":"Point","coordinates":[100.4304865,5.5205155]},"id":"node/4579929616"},{"type":"Feature","properties":{"@id":"node/4618661382","name":"Mutiara Performance Vehicle Proservice","shop":"car_repair"},"geometry":{"type":"Point","coordinates":[100.4316243,5.3682355]},"id":"node/4618661382"},{"type":"Feature","properties":{"@id":"node/4618661750","name":"Kiang Leng Workshop","shop":"car_repair"},"geometry":{"type":"Point","coordinates":[100.4182372,5.3863906]},"id":"node/4618661750"},{"type":"Feature","properties":{"@id":"node/4678764493","name":"Hooi Car workshop","name:en":"Hooi Car workshop","shop":"car_repair"},"geometry":{"type":"Point","coordinates":[100.2771506,5.3314725]},"id":"node/4678764493"},{"type":"Feature","properties":{"@id":"node/4806910511","name":"Prisma Speed Auto Services","shop":"car_repair"},"geometry":{"type":"Point","coordinates":[100.4346358,5.5357692]},"id":"node/4806910511"},{"type":"Feature","properties":{"@id":"node/4832300626","shop":"car_repair"},"geometry":{"type":"Point","coordinates":[100.3045529,5.338933]},"id":"node/4832300626"},{"type":"Feature","properties":{"@id":"node/4952807048","name":"Chia Motor Service","shop":"car_repair"},"geometry":{"type":"Point","coordinates":[100.4792815,5.3296507]},"id":"node/4952807048"},{"type":"Feature","properties":{"@id":"node/5587269022","name":"Toyota service","shop":"car_repair"},"geometry":{"type":"Point","coordinates":[100.3925565,5.3659458]},"id":"node/5587269022"},{"type":"Feature","properties":{"@id":"node/6205841781","name":"SGL Tyre & Car Service","name:en":"SGL Tyre & Car Service","name:zh":"新源利轮胎电池服务有限公司","operator":"SGL Tyre & Car Service Sdn. Bhd.","shop":"car_repair"},"geometry":{"type":"Point","coordinates":[100.3876934,5.4349591]},"id":"node/6205841781"},{"type":"Feature","properties":{"@id":"node/6377522686","name":"WP Garage","name:en":"WP Motorbike Workshop","operator":"Wan","phone":"0174730636","shop":"car_repair"},"geometry":{"type":"Point","coordinates":[100.4517114,5.5168461]},"id":"node/6377522686"},{"type":"Feature","properties":{"@id":"node/6383112538","name":"JM Auto Gallery Sdn. Bhd.","phone":"+6042913111","shop":"car_repair"},"geometry":{"type":"Point","coordinates":[100.3788486,5.412678]},"id":"node/6383112538"},{"type":"Feature","properties":{"@id":"node/6490039593","name":"SGL Tyre & Car Service","name:zh":"新源利轮胎电池服务有限公司","service":"repair;tyres","shop":"car_repair"},"geometry":{"type":"Point","coordinates":[100.3967071,5.4337829]},"id":"node/6490039593"},{"type":"Feature","properties":{"@id":"node/6539205486","name":"Long Seng Tyre Car Care Service Centre","name:zh":"隆成汽车轮胎中心","service":"repair;tyres","shop":"car_repair"},"geometry":{"type":"Point","coordinates":[100.3834976,5.4286622]},"id":"node/6539205486"},{"type":"Feature","properties":{"@id":"node/6604160287","shop":"car_repair"},"geometry":{"type":"Point","coordinates":[100.3213384,5.3992583]},"id":"node/6604160287"},{"type":"Feature","properties":{"@id":"node/6604160685","shop":"car_repair"},"geometry":{"type":"Point","coordinates":[100.3247601,5.4001136]},"id":"node/6604160685"},{"type":"Feature","properties":{"@id":"node/6605283493","shop":"car_repair"},"geometry":{"type":"Point","coordinates":[100.2159354,5.370364]},"id":"node/6605283493"},{"type":"Feature","properties":{"@id":"node/6605390792","shop":"car_repair"},"geometry":{"type":"Point","coordinates":[100.3216102,5.4168576]},"id":"node/6605390792"},{"type":"Feature","properties":{"@id":"node/6605390988","shop":"car_repair"},"geometry":{"type":"Point","coordinates":[100.3057737,5.4447537]},"id":"node/6605390988"},{"type":"Feature","properties":{"@id":"node/6605390993","shop":"car_repair"},"geometry":{"type":"Point","coordinates":[100.3171243,5.4205088]},"id":"node/6605390993"},{"type":"Feature","properties":{"@id":"node/6608846585","shop":"car_repair"},"geometry":{"type":"Point","coordinates":[100.3027491,5.3451531]},"id":"node/6608846585"},{"type":"Feature","properties":{"@id":"node/6608846586","shop":"car_repair"},"geometry":{"type":"Point","coordinates":[100.3020105,5.3441061]},"id":"node/6608846586"},{"type":"Feature","properties":{"@id":"node/9025899874","addr:city":"George Town","addr:housenumber":"18D","addr:postcode":"11500","addr:street":"Jalan Ayer Itam","name":"Windscreen2U George Town | Windscreen Specialist | Pakar Cermin Kereta","opening_hours":"Mo-Sa 09:00-18:00","phone":"1700811022","service:vehicle:glass":"yes","service:vehicle:mirrors":"yes","service:vehicle:window_tinting":"yes","service:vehicle:windshields":"yes","shop":"car_repair","website":"https://www.windscreen2u.com/cerminkereta"},"geometry":{"type":"Point","coordinates":[100.2887711,5.4044178]},"id":"node/9025899874"},{"type":"Feature","properties":{"@id":"node/9025945356","addr:city":"George Town","addr:housenumber":"87","addr:postcode":"11600","addr:street":"Jalan Tan Sri Teh Ewe Lim","name":"Mobile Windscreen Sdn. Bhd. (Jelutong)","opening_hours":"Mo-Sa 09:00-18:00","phone":"0166326282","service:vehicle:glass":"yes","service:vehicle:window_tinting":"yes","service:vehicle:windshields":"yes","shop":"car_repair"},"geometry":{"type":"Point","coordinates":[100.3112142,5.3913914]},"id":"node/9025945356"},{"type":"Feature","properties":{"@id":"node/9025959939","addr:city":"Bukit Mertajam","addr:housenumber":"2834","addr:postcode":"14000","addr:street":"Jalan Kampung Baru","name":"Windscreen2U Bukit Mertajam","opening_hours":"Mo-Sa 09:00-18:00","phone":"1700811022","service:vehicle:glass":"yes","service:vehicle:mirrors":"yes","service:vehicle:window_tinting":"yes","service:vehicle:windshields":"yes","shop":"car_repair","website":"https://www.windscreen2u.com/cerminkereta"},"geometry":{"type":"Point","coordinates":[100.4733898,5.3504184]},"id":"node/9025959939"},{"type":"Feature","properties":{"@id":"node/9025964800","addr:city":"Butterworth","addr:housenumber":"184","addr:postcode":"12300","addr:street":"Jalan Raja Uda","name":"Windscreen2U Butterworth | Windscreen Specialist | Pakar Cermin Kereta","opening_hours":"Mo-Sa 09:00-18:00","phone":"1700811022","service:vehicle:car_repair":"yes","service:vehicle:glass":"yes","service:vehicle:mirrors":"yes","service:vehicle:window_tinting":"yes","service:vehicle:windshields":"yes","service:vehicle:wipers":"yes","shop":"car_repair","website":"https://www.windscreen2u.com/cerminkereta"},"geometry":{"type":"Point","coordinates":[100.3814977,5.4213903]},"id":"node/9025964800"},{"type":"Feature","properties":{"@id":"node/9106562976","name":"Jin Hui Auto Service Centre","shop":"car_repair"},"geometry":{"type":"Point","coordinates":[100.3194522,5.3970336]},"id":"node/9106562976"},{"type":"Feature","properties":{"@id":"node/9189837713","name":"Hock Choon Car Painting","shop":"car_repair"},"geometry":{"type":"Point","coordinates":[100.3217185,5.4064893]},"id":"node/9189837713"},{"type":"Feature","properties":{"@id":"node/9189837773","name":"Cartech Auto Centre Sdn. Bhd.","shop":"car_repair"},"geometry":{"type":"Point","coordinates":[100.3182901,5.4069309]},"id":"node/9189837773"},{"type":"Feature","properties":{"@id":"node/9193696752","name":"Petron Car Care Centre","shop":"car_repair"},"geometry":{"type":"Point","coordinates":[100.3089367,5.3723454]},"id":"node/9193696752"},{"type":"Feature","properties":{"@id":"node/9483749919","name":"Shell Helix Service Centre","shop":"car_repair"},"geometry":{"type":"Point","coordinates":[100.3151482,5.4277394]},"id":"node/9483749919"},{"type":"Feature","properties":{"@id":"node/3997897110","name":"Kedai Motor Fang","name:zh":"方摩哆","note":"approx position","shop":"motorcycle","source":"https://openstreetcam.org/details/2254838/449/track-info"},"geometry":{"type":"Point","coordinates":[100.4902871,5.4835256]},"id":"node/3997897110"},{"type":"Feature","properties":{"@id":"node/3997897111","name":"Kedai Motor Keak Li","note":"approx position","shop":"motorcycle","source":"Mapillary"},"geometry":{"type":"Point","coordinates":[100.4903528,5.4834919]},"id":"node/3997897111"},{"type":"Feature","properties":{"@id":"node/4003139629","name":"Khing Motors","shop":"motorcycle"},"geometry":{"type":"Point","coordinates":[100.4296973,5.4455369]},"id":"node/4003139629"},{"type":"Feature","properties":{"@id":"node/4462018051","name":"PS One Motor","repair":"yes","shop":"motorcycle"},"geometry":{"type":"Point","coordinates":[100.4067431,5.4050464]},"id":"node/4462018051"},{"type":"Feature","properties":{"@id":"node/4571593846","name":"Kedai Motosikal Lean Huat","shop":"motorcycle"},"geometry":{"type":"Point","coordinates":[100.4297087,5.5127379]},"id":"node/4571593846"},{"type":"Feature","properties":{"@id":"node/4571593848","former:name":"Kedai Motor Shen Hwa","repair":"yes","shop":"motorcycle"},"geometry":{"type":"Point","coordinates":[100.4298173,5.5137013]},"id":"node/4571593848"},{"type":"Feature","properties":{"@id":"node/4571593991","name":"Yew Ngee Motor Parts & Accessories Sdn Bhd","name:zh":"侑意摩哆零件有限公司","operator":"Yew Ngee Motor Parts & Accessories Sdn Bhd","parts":"yes","shop":"motorcycle","source":"https://www.mapillary.com/map/im/8uv8okrW8XIEiDGzp4gFJD"},"geometry":{"type":"Point","coordinates":[100.429929,5.5177864]},"id":"node/4571593991"},{"type":"Feature","properties":{"@id":"node/4571593993","name":"Zi Yang Auto Sdn Bhd","name:zh":"子阳有限公司","sale":"yes","shop":"motorcycle","source":"https://www.mapillary.com/map/im/d2KKXKJ2Q0VzL77Kc0lUNm"},"geometry":{"type":"Point","coordinates":[100.4299347,5.5178843]},"id":"node/4571593993"},{"type":"Feature","properties":{"@id":"node/4571593994","brand":"Honda;Yamaha","motorcycle:sales":"yes","name":"KB Soon Huat Motor Sdn Bhd","name:zh":"KB瞬发摩哆有限公司","operator":"KB Soon Huat Motor Sdn Bhd","shop":"motorcycle","source":"fUDD0LLdEBczk4fBvu4vIz"},"geometry":{"type":"Point","coordinates":[100.4299531,5.518126]},"id":"node/4571593994"},{"type":"Feature","properties":{"@id":"node/4571702222","name":"Huang Motor","sale":"yes","shop":"motorcycle"},"geometry":{"type":"Point","coordinates":[100.4297243,5.5112368]},"id":"node/4571702222"},{"type":"Feature","properties":{"@id":"node/4573654050","name":"SYN Motor Enterprise","repair":"yes","shop":"motorcycle"},"geometry":{"type":"Point","coordinates":[100.4643878,5.40335]},"id":"node/4573654050"},{"type":"Feature","properties":{"@id":"node/4573654054","name":"Fung Motor Enterprise","shop":"motorcycle"},"geometry":{"type":"Point","coordinates":[100.4644798,5.403519]},"id":"node/4573654054"},{"type":"Feature","properties":{"@id":"node/4573654055","name":"Sin Hin Motors (M) Sdn Bhd","shop":"motorcycle"},"geometry":{"type":"Point","coordinates":[100.4647174,5.4035399]},"id":"node/4573654055"},{"type":"Feature","properties":{"@id":"node/4577894384","name":"Sooi Hin Motor","name:zh":"瑞兴摩哆","shop":"motorcycle","source":"https://www.mapillary.com/map/im/K4XnD6xjjvZjRVNnERt48N"},"geometry":{"type":"Point","coordinates":[100.4298535,5.516511]},"id":"node/4577894384"},{"type":"Feature","properties":{"@id":"node/4577894609","sale":"yes","shop":"motorcycle"},"geometry":{"type":"Point","coordinates":[100.4303519,5.5108305]},"id":"node/4577894609"},{"type":"Feature","properties":{"@id":"node/4577894611","sale":"yes","shop":"motorcycle"},"geometry":{"type":"Point","coordinates":[100.4303284,5.5103556]},"id":"node/4577894611"},{"type":"Feature","properties":{"@id":"node/4577894619","name":"Kedai Motor Hai Seng","repair":"yes","shop":"motorcycle"},"geometry":{"type":"Point","coordinates":[100.4301101,5.5090468]},"id":"node/4577894619"},{"type":"Feature","properties":{"@id":"node/4579929624","name":"Chun Kooi Motor","name:zh":"春桂摩哆","repair":"yes","shop":"motorcycle","source":"https://www.mapillary.com/map/im/74qYqjKEEByvVqAPeNkNs5"},"geometry":{"type":"Point","coordinates":[100.4304873,5.5191066]},"id":"node/4579929624"},{"type":"Feature","properties":{"@id":"node/4620835171","name":"Faisol Motor","repair":"yes","shop":"motorcycle"},"geometry":{"type":"Point","coordinates":[100.4197832,5.3803716]},"id":"node/4620835171"},{"type":"Feature","properties":{"@id":"node/4620838746","brand":"Suzuki;Yamaha","motorcycle:repair":"yes","motorcycle:sales":"yes","name":"Parda Motor","name:zh":"八达摩哆","phone":"+6045372254","shop":"motorcycle","source":"https://www.mapillary.com/app/?pKey=sd1L5E6W6WEvKGf273L2vA&focus=photo"},"geometry":{"type":"Point","coordinates":[100.4296311,5.3679611]},"id":"node/4620838746"},{"type":"Feature","properties":{"@id":"node/4622276798","name":"Hin Motor","repair":"yes","shop":"motorcycle"},"geometry":{"type":"Point","coordinates":[100.4194184,5.4109588]},"id":"node/4622276798"},{"type":"Feature","properties":{"@id":"node/4625586057","name":"GNP Motor","shop":"motorcycle"},"geometry":{"type":"Point","coordinates":[100.4297407,5.5105246]},"id":"node/4625586057"},{"type":"Feature","properties":{"@id":"node/4802013519","brand":"Kawasaki;Yamaha","motorcycle:sales":"yes","name":"Brightwill Trading Sdn Bhd","shop":"motorcycle"},"geometry":{"type":"Point","coordinates":[100.3708196,5.41056]},"id":"node/4802013519"},{"type":"Feature","properties":{"@id":"node/5190331423","name":"SOLIDBIKE","shop":"motorcycle"},"geometry":{"type":"Point","coordinates":[100.3902672,5.3862462]},"id":"node/5190331423"},{"type":"Feature","properties":{"@id":"node/5692036734","name":"Eng Lum Motor","shop":"motorcycle"},"geometry":{"type":"Point","coordinates":[100.3388046,5.4160507]},"id":"node/5692036734"},{"type":"Feature","properties":{"@id":"node/5850721085","name":"EL Chong Motor Trading","shop":"motorcycle"},"geometry":{"type":"Point","coordinates":[100.4962257,5.2019918]},"id":"node/5850721085"},{"type":"Feature","properties":{"@id":"node/5953080592","brand":"Ducati","brand:wikidata":"Q271812","brand:wikipedia":"en:Ducati Motor Holding S.p.A.","name":"Ducati","shop":"motorcycle"},"geometry":{"type":"Point","coordinates":[100.3276626,5.4138763]},"id":"node/5953080592"},{"type":"Feature","properties":{"@id":"node/6212959385","name":"Motorbike Rental","shop":"motorcycle"},"geometry":{"type":"Point","coordinates":[100.3367155,5.4181174]},"id":"node/6212959385"},{"type":"Feature","properties":{"@id":"node/6309738092","shop":"motorcycle"},"geometry":{"type":"Point","coordinates":[100.4953634,5.3438839]},"id":"node/6309738092"},{"type":"Feature","properties":{"@id":"node/6601338988","name":"Castrol","shop":"motorcycle"},"geometry":{"type":"Point","coordinates":[100.278293,5.4019706]},"id":"node/6601338988"},{"type":"Feature","properties":{"@id":"node/6601347506","shop":"motorcycle"},"geometry":{"type":"Point","coordinates":[100.3103356,5.4133824]},"id":"node/6601347506"},{"type":"Feature","properties":{"@id":"node/6601347507","shop":"motorcycle"},"geometry":{"type":"Point","coordinates":[100.3013196,5.4077527]},"id":"node/6601347507"},{"type":"Feature","properties":{"@id":"node/6601382196","shop":"motorcycle"},"geometry":{"type":"Point","coordinates":[100.310434,5.4134632]},"id":"node/6601382196"},{"type":"Feature","properties":{"@id":"node/6601382298","shop":"motorcycle"},"geometry":{"type":"Point","coordinates":[100.2861425,5.4044782]},"id":"node/6601382298"},{"type":"Feature","properties":{"@id":"node/6604160291","shop":"motorcycle"},"geometry":{"type":"Point","coordinates":[100.3236142,5.4013994]},"id":"node/6604160291"},{"type":"Feature","properties":{"@id":"node/6604160586","name":"Chuan Motor","shop":"motorcycle"},"geometry":{"type":"Point","coordinates":[100.321592,5.4000076]},"id":"node/6604160586"},{"type":"Feature","properties":{"@id":"node/6605283289","brand":"SYM","name":"SYM","shop":"motorcycle","source":"https://www.mapillary.com/app/?pKey=NkCKBeNjzSL6ookYD7M995&focus=photo"},"geometry":{"type":"Point","coordinates":[100.2317668,5.3512267]},"id":"node/6605283289"},{"type":"Feature","properties":{"@id":"node/6605283387","shop":"motorcycle"},"geometry":{"type":"Point","coordinates":[100.2171963,5.3680635]},"id":"node/6605283387"},{"type":"Feature","properties":{"@id":"node/6605283487","shop":"motorcycle"},"geometry":{"type":"Point","coordinates":[100.2295956,5.3527312]},"id":"node/6605283487"},{"type":"Feature","properties":{"@id":"node/6605363388","shop":"motorcycle"},"geometry":{"type":"Point","coordinates":[100.2848783,5.4652642]},"id":"node/6605363388"},{"type":"Feature","properties":{"@id":"node/6605363392","shop":"motorcycle"},"geometry":{"type":"Point","coordinates":[100.2885049,5.4657993]},"id":"node/6605363392"},{"type":"Feature","properties":{"@id":"node/6605387987","shop":"motorcycle"},"geometry":{"type":"Point","coordinates":[100.3072128,5.455414]},"id":"node/6605387987"},{"type":"Feature","properties":{"@id":"node/6669792210","addr:city":"Simpang Ampat","addr:housenumber":"1 & 3","addr:postcode":"14100","addr:street":"Jalan Jentayu","name":"Soon Lee Huat Brothers Motor Sdn Bhd","name:zh":"顺利发兄弟摩多有限公司","opening_hours":"Mo-Sa 09:30-18:30","shop":"motorcycle","source":"https://www.mapillary.com/app/?pKey=HPWfvrYG5ytbFGvMiB1PvR&focus=photo"},"geometry":{"type":"Point","coordinates":[100.4764886,5.2778783]},"id":"node/6669792210"},{"type":"Feature","properties":{"@id":"node/6794732122","name":"Pauh Motor","service":"repair","shop":"motorcycle"},"geometry":{"type":"Point","coordinates":[100.4131668,5.4105439]},"id":"node/6794732122"},{"type":"Feature","properties":{"@id":"node/7628968367","name":"Hock Lee Motor","name:zh":"福利摩哆","shop":"motorcycle","source":"https://openstreetcam.org/details/2193194/1446/track-info"},"geometry":{"type":"Point","coordinates":[100.4409495,5.4550618]},"id":"node/7628968367"},{"type":"Feature","properties":{"@id":"node/9189837772","brand":"Honda","brand:wikidata":"Q9584","brand:wikipedia":"en:Honda","name":"Honda Big Wing","operator":"Taycon Motor Sd. Bhd.","shop":"motorcycle"},"geometry":{"type":"Point","coordinates":[100.3185907,5.4070307]},"id":"node/9189837772"},{"type":"Feature","properties":{"@id":"node/9719875580","addr:city":"Bukit Mertajam","addr:housenumber":"G-3353","addr:postcode":"14000","addr:street":"Jalan Rozhan","name":"KAHR Motorbike Sdn Bhd","name:zh":"嘉摩多有限公司","shop":"motorcycle"},"geometry":{"type":"Point","coordinates":[100.4836198,5.3366998]},"id":"node/9719875580"}]}